StoreName,StoreType,StoreOpeningDate,Address,City,State,Country,Region,Manager Name
The Eclectic Elegance,Exclusive,1990-11-27,02624 John Mount Apt. 559 West Philipmouth  MD 14033,Jameston,West Virginia,Dominica,East,Gina
The Elegant Merchant,Outlet Stores,1990-11-02,32217 Cunningham Divide West Tina  OH 58876,Port Andrew,Florida,Turks and Caicos Islands,North,Erica
The Golden Closet,Exclusive,2019-04-08,0251 Johnson Rapids Apt. 562 West Aaronland  LA 79724,Matthewfurt,Louisiana,Western Sahara,West,Raymond
The Urban Nook,Outlet Stores,2020-03-02,93415 Erica Field East Adamville  AS 88304,Port Mark,Alaska,British Indian Ocean Territory (Chagos Archipelago),West,Joanna
The Harmony Shoppe,MBO,2009-12-21,14939 Elizabeth Port West Joseph  OK 19538,Lindseymouth,Wyoming,Monaco,East,Nicole
The Polished Corner,Outlet Stores,1971-05-05,144 Moody Road Apt. 775 North Staceychester  ID 79954,New Deniseport,Rhode Island,Rwanda,South,Jennifer
The Timeless Hub,Outlet Stores,1974-10-21,296 Werner Heights Reedton  OH 39328,Ericfurt,Oregon,Guinea,West,Tamara
The Trendy Deals,MBO,2020-05-28,997 Mike Crossroad Apt. 221 South Gary  MN 09760,Briantown,West Virginia,Gabon,South,Michele
The Serene Essentials,MBO,2021-12-30,53510 Reyes Ville Dannyhaven  PW 38056,Richardtown,Connecticut,Guinea,South,Alexis
The Polished Perfection,MBO,2002-05-18,44270 Lauren Isle Walterhaven  AZ 05606,Gregorychester,Nebraska,Guernsey,East,Joseph
The Artisan Merchant,Outlet Stores,1977-06-03,981 Michael Square East Michaelville  MP 27437,Port Richardtown,Rhode Island,Albania,North,Sharon
The Majestic Haven,MBO,1977-10-29,USCGC Allen FPO AE 20728,Jonesville,Louisiana,Angola,East,Troy
The Classy Avenue,SMB,1990-02-20,0827 Isabella Terrace Suite 764 Cruzport  CT 76761,North Christopherhaven,New Hampshire,Niue,East,Kelsey
The Elegant Emporium,Exclusive,1977-07-24,0063 Cameron Manor Justinton  RI 71596,Michellechester,Nebraska,Kuwait,North,Amanda
The Enchanted Shop,MBO,2010-10-11,52445 Reese Parkways Apt. 023 New Williamshire  WV 51412,Lake John,Minnesota,Venezuela,South,Brittany
The Majestic Oasis,Outlet Stores,2017-08-16,341 Cook Dam Suite 652 Lake Nicholas  WY 65874,Robertport,New Hampshire,Senegal,West,Paul
The Serene Elegance,SMB,2015-07-26,794 Brown Viaduct Port Michelleport  RI 32774,Lake Keith,Minnesota,British Indian Ocean Territory (Chagos Archipelago),South,Luis
The Modern Merchant,Exclusive,2006-09-16,0820 Maria Island Suite 896 Edwardmouth  NV 37923,Lake Mistyport,New York,Armenia,North,Paul
The Rustic Boutique,MBO,2009-05-23,7430 David Walk Suite 988 Christineview  LA 04641,New Christopher,Maine,Lao People's Democratic Republic,West,Ronnie
The Rustic Boutique,Exclusive,2023-10-09,542 Carter Expressway Nguyenport  MP 17727,Rhondaport,Iowa,South Africa,North,Rebecca
The Stylish Finds,Exclusive,1986-10-06,04099 Schneider Branch Suite 220 Port Gary  GU 52624,Wrightville,Colorado,Brazil,East,James
The Whimsy Vault,SMB,1984-04-11,8483 Christine Unions Apt. 955 Vanceville  NY 34808,East Charlesmouth,Wisconsin,El Salvador,South,Miguel
The Classy Emporium,SMB,2002-06-24,78909 Molly Ford West Mark  SD 64528,Lake Traviston,Kentucky,Brazil,South,Lauren
The Blissful Marvels,SMB,1977-01-19,76204 Lee Green West Brucemouth  ID 26235,Karlabury,Wyoming,Lithuania,West,Peter
The Stylish Boutique,Exclusive,2015-02-27,PSC 5550  Box 6819 APO AP 82096,Webbborough,South Carolina,Rwanda,East,Clifford
The Serene Creations,MBO,1981-01-19,221 Troy Shore Suite 560 New Keithside  DE 07387,Padillahaven,Arizona,Brazil,East,Sarah
The Dapper Corner,MBO,2018-08-04,6992 Gordon Plaza Apt. 678 West Amanda  MS 76333,New Tammymouth,Oklahoma,Yemen,East,David
The Serene Merchant,Outlet Stores,1973-06-17,Unit 7513 Box 4186 DPO AP 70448,Kathryntown,New Hampshire,Morocco,East,Karen
The Whimsy Elegance,Exclusive,2000-04-25,695 Robert Points Cristinaview  MO 87095,East Amandatown,New Mexico,Bosnia and Herzegovina,West,Joshua
The Serene Cabinet,SMB,1987-08-22,2094 Katie Tunnel Rhondamouth  MH 30798,West Colleen,Washington,Luxembourg,West,Carlos
The Classy Oasis,SMB,1976-05-04,USCGC Watson FPO AA 44562,Lake Tamarahaven,Oregon,Libyan Arab Jamahiriya,South,David
The Majestic Shoppe,SMB,2024-08-11,79108 Thompson Prairie Suite 982 New Michelleborough  MS 74973,Nathanielside,Delaware,Libyan Arab Jamahiriya,East,Kent
The Classy Perfection,Exclusive,2009-02-18,26786 Rojas Plains Lake William  AL 19109,Ballardbury,Louisiana,Zambia,South,Meredith
The Chic Deals,Exclusive,2024-06-03,511 Dominique Course Gentryport  UT 27077,New Ericside,Idaho,North Macedonia,West,Brian
The Radiant Avenue,Exclusive,2021-01-28,USCGC Price FPO AP 83493,Juliestad,Delaware,Cambodia,West,Charles
The Majestic Closet,Outlet Stores,2005-01-13,907 Jessica Isle Cindyview  WV 93643,West Davidstad,Alaska,Singapore,South,Albert
The Polished Cabinet,Exclusive,2005-02-20,34329 James Centers Gordontown  GA 91546,Andersonport,Louisiana,Suriname,North,Marie
The Urban Closet,MBO,1984-05-08,0982 Morgan Turnpike Christinaland  MD 51021,Davischester,Minnesota,Slovakia (Slovak Republic),South,Karen
The Stylish Haven,SMB,2015-09-20,6233 Frye Corner Suite 557 New Annastad  WA 02341,Kellyside,Indiana,French Southern Territories,East,Stephanie
The Luxe Nook,MBO,1997-07-20,59599 Higgins Bridge Suite 471 North Scottville  PA 74681,Martinezborough,Colorado,Samoa,East,Anthony
The Vintage Nook,Outlet Stores,1981-03-03,640 Harris Pass Brewerton  KY 87230,East John,Ohio,Moldova,East,Jose
The Shimmer Reflections,Exclusive,1985-06-06,Unit 0014 Box 9723 DPO AP 02230,East Traceyshire,Kentucky,Gabon,West,Duane
The Elegant Sanctuary,Outlet Stores,2011-12-21,8461 Hanson Grove Hudsonton  ND 64557,Lake Elizabeth,Hawaii,Hong Kong,South,Lauren
The Cozy Emporium,Exclusive,2023-03-21,806 Moore Hills West Jose  KS 10213,Pageville,Pennsylvania,Guatemala,North,Juan
The Radiant Vault,Exclusive,2018-12-13,02791 Scott Crossroad Suite 940 North Alicia  MD 56058,Port Kathyland,Oregon,Reunion,South,Bryan
The Elegant Loft,SMB,2018-02-15,5319 Christopher Rapid Apt. 721 Hernandezburgh  VA 37133,Tiffanyborough,Utah,Liechtenstein,East,Emily
The Dapper Merchant,Exclusive,2007-08-20,82527 Wong Loop Mcclureburgh  MT 95484,Yesenialand,Rhode Island,Belarus,West,William
The Unique Marketplace,MBO,2013-01-09,8048 Danielle Dam Mikeburgh  SD 05418,South David,Louisiana,Namibia,South,Christine
The Luxe Vault,SMB,1975-09-18,482 Knox Estates Suite 956 Josephbury  OR 23614,Jamesstad,South Dakota,Guinea,East,Dawn
The Golden Marvels,Exclusive,1977-07-31,13246 Taylor Key Apt. 334 East Steven  MP 14488,New Kennethshire,Arkansas,American Samoa,North,Jack
The Unique Vault,Exclusive,2001-01-16,209 Ricky Forges Lake Matthewburgh  NY 63017,Daviston,New York,Spain,East,Clayton
The Happy Loft,Outlet Stores,1998-06-19,34814 Galloway Walk Lake Ronaldburgh  AK 27716,West Melissa,Minnesota,Cambodia,South,Matthew
The Enchanted Nook,Exclusive,2008-07-13,45742 Ryan Islands Apt. 874 Andrewston  MS 17412,Michaelburgh,Missouri,Dominica,West,Michael
The Artisan Boutique,Exclusive,2008-06-13,87510 Sosa Skyway Apt. 687 Silvashire  OH 45983,Port Brianberg,South Dakota,Macao,North,Gary
The Dapper Essentials,MBO,1990-08-09,530 James Inlet East Hannahmouth  AZ 53510,Edwardston,Kentucky,French Guiana,West,Kyle
The Luxe Enclave,SMB,1972-04-26,9218 Pacheco Route Lauriefurt  NY 33845,Heatherchester,Indiana,Belize,West,James
The Trendy Essentials,Exclusive,1989-08-31,0947 Wolf Trail Suite 943 North Ashlee  MS 82615,West Julie,Indiana,Bhutan,South,Jacob
The Golden Haven,Outlet Stores,1981-06-29,818 Thomas Island Taylorland  MO 30357,East Tina,Maine,Suriname,East,Joseph
The Blissful Finds,Outlet Stores,2018-01-26,761 Bruce Mountain Meganmouth  SC 74812,North Anna,Virginia,British Indian Ocean Territory (Chagos Archipelago),West,Kaitlyn
The Cozy Perfection,MBO,1999-05-01,622 Derek Green New Garyshire  NH 68906,South Roger,Oregon,Ecuador,East,Ronald
The Unique Haven,Exclusive,2024-04-27,51821 Benjamin Cliff Suite 647 Brianfurt  WV 38704,Lunaton,New Jersey,Finland,East,Spencer
The Enchanted Shop,Outlet Stores,2020-04-09,93898 Wolfe Brooks Robertport  MD 37056,West Robertfort,Colorado,Vietnam,West,Deborah
The Happy Perfection,Exclusive,2022-06-15,713 Lewis Land Apt. 773 Jasonburgh  VI 98845,Lake Markhaven,Texas,Burundi,East,Misty
The Enchanted Loft,SMB,2017-12-22,84145 Tiffany Lane Apt. 944 West Craig  PA 20278,South Robert,Vermont,Finland,South,Heidi
The Trendy Emporium,Exclusive,1975-08-26,1631 Montgomery Wells Sarahbury  PW 03633,Kennedyton,Alabama,Bahamas,North,Louis
The Enchanted Emporium,Outlet Stores,1981-03-20,4772 Beltran Mill Apt. 446 West Carlmouth  AR 59691,Rogersmouth,Indiana,Niue,West,Maxwell
The Unique Elegance,Outlet Stores,2006-01-02,52708 Navarro Green Suite 258 Melissahaven  IN 45518,New Terrychester,Kansas,Uganda,North,Samuel
The Dapper Enclave,MBO,1995-04-22,2973 Parker Burg Apt. 309 Caseybury  MI 03403,North Autumnfort,Arizona,United States Minor Outlying Islands,West,Jason
The Eclectic Haven,SMB,1979-11-08,3100 Braun Locks South Daniel  NE 91332,Craigview,Maryland,United States Virgin Islands,South,Cassidy
The Eclectic Treasures,Exclusive,2013-06-18,992 Randall Orchard Apt. 129 Lake Timothy  KY 00763,Carriehaven,Nevada,Colombia,West,Christopher
The Luxe Corner,Outlet Stores,2003-06-24,29917 Rose Drive Suite 482 Peterview  MD 58163,Laurenville,North Carolina,Antarctica (the territory South of 60 deg S),North,Marie
The Trendy Avenue,Exclusive,2002-06-06,20313 Briggs Garden Apt. 715 Port Jessicashire  FM 22862,South Danielshire,Ohio,French Polynesia,West,Patricia
The Modern Reflections,SMB,2012-12-02,705 Wade Burg Shawnborough  LA 59331,West Phillip,South Dakota,Madagascar,North,Stephanie
The Harmony Deals,SMB,2025-06-07,8537 Flores Lodge Ianmouth  OK 27840,North George,Texas,Gibraltar,West,Austin
The Shimmer Avenue,SMB,2004-06-19,4904 Andre Radial Port Taylorside  MO 25626,Jeffreyfort,Florida,Maldives,East,Cynthia
The Classy Nook,Outlet Stores,1970-08-10,6006 Joseph Shores Apt. 162 Jenkinsview  MN 39107,North Kathleen,South Carolina,Mauritius,West,Spencer
The Eclectic Closet,Outlet Stores,2005-08-09,USNV Clark FPO AE 81968,Lopezchester,Alaska,Taiwan,West,Suzanne
The Artisan Deals,MBO,1985-07-07,18410 Watson Pines Apt. 324 Lake Billy  GU 85960,Port Victorborough,Mississippi,Norway,North,Nicholas
The Classy Reflections,Exclusive,2010-01-25,USNV Hernandez FPO AA 18900,North Aaron,Maryland,Guinea,North,Austin
The Purely Nook,Outlet Stores,2008-01-20,247 Michael Heights Apt. 873 Martinezville  DC 16477,Michaelfurt,Oregon,Italy,South,Anne
The Serene Avenue,MBO,2010-07-28,813 Martin Roads Apt. 938 New Paulmouth  NE 76492,Caitlinhaven,Nevada,Cuba,West,Jacob
The Unique Reflections,SMB,1992-10-07,0538 Jasmine Union Wattstown  ME 66592,Coxview,Illinois,Finland,North,Dawn
The Happy Treasures,Exclusive,1970-04-28,7337 Melissa Ways Jordanfort  KS 73907,Claudiastad,Hawaii,Serbia,North,Holly
The Serene Shoppe,Outlet Stores,1978-10-04,197 Stephanie Port Apt. 430 West Heidi  UT 20448,South Bob,Tennessee,Tokelau,North,Samuel
The Harmony Nook,MBO,2022-01-21,456 Joe Station Apt. 203 Lake Deannamouth  OR 92157,Lake Rebecca,Virginia,Turks and Caicos Islands,South,Monica
The Urban Cabinet,Outlet Stores,2020-07-17,2760 Jones Heights Lake Ambermouth  OR 15498,Milesburgh,Minnesota,Portugal,West,Hannah
The Luxe Deals,Exclusive,1978-12-16,455 Whitney Rest Suite 820 Lake Johnshire  WA 55193,Cynthiamouth,Florida,Pakistan,East,Karen
The Eclectic Reflections,Exclusive,1999-06-15,Unit 8792 Box 2359 DPO AA 62051,Toddmouth,Nebraska,Bermuda,West,Amanda
The Artisan Cabinet,SMB,1974-11-15,43297 Fisher Centers East Anthonybury  VI 60157,New Angela,Virginia,Albania,West,Sergio
The Golden Shoppe,Exclusive,1996-11-08,472 Carl Shores Apt. 654 East Elizabeth  FL 75107,Port Amandamouth,New Jersey,Pakistan,South,Michael
The Happy Vault,SMB,2005-09-02,PSC 7063  Box 7004 APO AP 66104,North Chrisville,Louisiana,Holy See (Vatican City State),East,Katelyn
The Urban Oasis,MBO,1986-10-24,2351 Yang Place Gillville  GU 10291,Austinshire,Michigan,Bermuda,West,Brenda
The Purely Enclave,Exclusive,2009-11-05,9839 Catherine Plains Apt. 141 Kennethside  FL 56629,North Catherineburgh,New York,Paraguay,South,Brianna
The Enchanted Quest,SMB,2021-08-14,846 Shaw Dale West Deborahshire  MP 69986,Lake Robertmouth,Connecticut,Saint Kitts and Nevis,North,Misty
The Unique Quest,MBO,2003-01-13,640 Frederick Turnpike Bretthaven  OH 99929,Lake Edwin,Wyoming,United States Virgin Islands,North,Allen
The Trendy Reflections,SMB,1976-12-05,98384 John Roads Suite 105 Lake Kathrynchester  UT 87914,East Jessicabury,North Dakota,Chile,East,Kathy
The Stylish Closet,Outlet Stores,2016-12-29,383 Tyler Points Suite 362 Cooperchester  ME 99308,Donton,Hawaii,Grenada,South,Edward
The Artisan Merchant,SMB,1983-01-14,Unit 5606 Box 1069 DPO AA 78765,Alyssaside,North Carolina,American Samoa,North,Kaitlyn
The Rustic Merchant,Exclusive,1977-10-26,8055 Bailey Street Apt. 435 West Angelaville  KY 74099,Mackenzietown,Maine,Ukraine,North,Isaiah
The Cozy Hub,Outlet Stores,2011-10-10,0410 Kimberly Mountains Apt. 783 Larrymouth  RI 38708,Lake Caitlin,Missouri,Latvia,West,Christine
